413P/Larson,e,15.9780,39.0205,186.0760,3.710850,0.1378777,0.42327059,33.7406,03/22.0/2022,2000,g 14.0,4.0
# From MPEC 2021-BE3
414P/STEREO,e,23.3851,257.7895,210.7229,2.794012,0.2110385,0.81161843,88.7736,03/22.0/2022,2000,g 19.0,4.0
# From MPEC 2022-CN4
415P/Tenagra,e,31.7923,160.2946,346.1788,4.114521,0.1180933,0.19468708,47.2706,03/22.0/2022,2000,g 12.0,4.0
# From MPEC 2021-L04
416P/Scotti,e,3.3613,355.8117,134.4781,4.011972,0.1226499,0.45428979,49.0139,03/22.0/2022,2000,g 15.5,4.0
# From MPEC 2021-W31
417P/NEOWISE,e,8.1257,111.2972,129.4912,3.350491,0.1607094,0.55508800,53.6263,03/22.0/2022,2000,g 16.5,4.0
# From MPEC 2021-L04
418P/LINEAR,e,5.7972,277.6565,307.1100,5.080285,0.0860740,0.66478622,13.3775,03/22.0/2022,2000,g 13.0,4.0
# From MPEC 2022-CN4
419P/PANSTARRS,e,2.8029,40.3900,187.5078,3.520581,0.1492048,0.27759069,21.7119,03/22.0/2022,2000,g 12.5,4.0
# From MPEC 2021-S45
420P/Hill,e,14.5040,173.9527,157.1040,5.528699,0.0758175,0.49564644,355.3328,03/22.0/2022,2000,g 11.5,4.0
# From MPEC 2021-W31
421P/McNaught,e,10.0796,55.3481,259.8337,5.075337,0.0861999,0.67549193,36.2204,03/22.0/2022,2000,g 14.0,4.0
# From MPEC 2022-A21
422P/Christensen,e,39.5434,36.0384,305.1563,6.321259,0.0620153,0.50876690,4.1668,03/22.0/2022,2000,g 11.0,4.0
# From MPEC 2022-A21
423P/Lemmon,e,8.3459,33.3062,80.3075,6.166039,0.0643717,0.12099969,11.8689,03/22.0/2022,2000,g  8.0,4.0
# From MPEC 2022-CN4
424P/LaSagra,e,8.6856,51.1779,312.4757,4.413866,0.1062858,0.69126252,15.0253,03/22.0/2022,2000,g 17.0,4.0
# From MPEC 2022-F14
425P/Kowalski,e,16.4206,210.0859,200.7498,6.331051,0.0618715,0.54349443,11.2930,03/22.0/2022,2000,g 12.0,4.0
# From MPEC 2021-Y10
426P/PANSTARRS,e,17.7736,280.5221,119.1412,3.186102,0.1733064,0.16130560,266.2243,03/22.0/2022,2000,g 13.5,4.0
# From MPEC 2022-C56
428P/Gibbs,e,8.5149,299.3367,36.8203,3.484302,0.1515411,0.51949873,47.1799,03/22.0/2022,2000,g 15.0,4.0
# From MPEC 2022-ED3
429P/LINEAR-Hill,e,7.5220,322.0732,75.5373,3.550525,0.1473212,0.49127730,11.6178,03/22.0/2022,2000,g 15.5,4.0
# From MPEC 2022-CN4
430P/Scotti,e,4.4749,54.6722,94.5002,3.106841,0.1799806,0.49961368,19.7583,03/22.0/2022,2000,g 16.5,4.0
# From MPEC 2022-ED3
431P/Scotti,e,22.3922,202.8464,199.8564,3.472313,0.1523266,0.47767340,5.5801,03/22.0/2022,2000,g 14.0,4.0
# From MPEC 2021-U31
432P/PANSTARRS,e,10.0692,239.1431,105.2404,3.035607,0.1863527,0.24205801,37.9478,03/22.0/2022,2000,g 17.0,4.0
# From MPEC 2022-ED3
434P/Tenagra,e,6.3397,288.9676,128.0507,4.127831,0.1175226,0.27431857,17.2983,03/22.0/2022,2000,g 13.0,4.0
# From MPEC 2021-W31
435P/PANSTARRS,e,18.8826,98.5498,244.1505,3.018376,0.1879508,0.31872401,44.6451,03/22.0/2022,2000,g 17.0,4.0
# From MPEC 2022-C56
436P/Garradd,e,20.2104,87.1897,282.5960,5.929096,0.0682686,0.66982833,7.0657,03/22.0/2022,2000,g 14.5,4.0
# From MPEC 2021-Y10
437P/PANSTARRS,e,3.6897,245.8688,206.7100,4.558482,0.1012683,0.25409284,344.8685,03/22.0/2022,2000,g 13.0,4.0
# From MPEC 2021-W47
438P/Christensen,e,8.2881,260.1557,58.9413,3.846899,0.1306285,0.41576859,93.4825,03/22.0/2022,2000,g 14.5,4.0
# From MPEC 2022-C56
439P/LINEAR,e,7.1143,56.4171,341.9974,3.487528,0.1513309,0.46947120,31.4612,03/22.0/2022,2000,g 13.5,4.0
# From MPEC 2022-F14
440P/Kobayashi,e,12.3395,328.8822,183.3195,8.584781,0.0391841,0.76047933,359.6884,03/22.0/2022,2000,g 15.5,4.0
# From MPC107687
1I/`Oumuamua,h,09/09.4886/2017,122.6778,24.5997,241.6845,1.199252,0.255240,2000,23.0,2.0
# From MPEC 2020-K19
2I/Borisov,h,12/08.5549/2019,44.0527,308.1480,209.1251,3.356636,2.006548,2000,11.0,4.0
